{
  "type": "FeatureCollection",
  "features": [
    {
      "type": "Feature",
      "properties": {
        "norad_id": 40376,
        "name": "SMAP",
        "group": "resource",
        "lat": 20.225861628616755,
        "lon": -176.9814707663784,
        "alt_km": 682.0816101746568,
        "timestamp": "2025-12-21T09:37:22.305593+00:00",
        "meta_object_name": "SMAP",
        "meta_object_id": "2015-003A",
        "meta_epoch": "2025-12-21T03:58:24.769344",
        "meta_mean_motion": 14.63354538,
        "meta_eccentricity": 0.0001227,
        "meta_inclination": 98.1288,
        "meta_ra_of_asc_node": 359.7679,
        "meta_arg_of_pericenter": 91.4521,
        "meta_mean_anomaly": 268.6822,
        "meta_ephemeris_type": 0,
        "meta_classification_type": "U",
        "meta_norad_cat_id": 40376,
        "meta_element_set_no": 999,
        "meta_rev_at_epoch": 58158,
        "meta_bstar": 7.9596e-05,
        "meta_mean_motion_dot": 3.64e-06,
        "meta_mean_motion_ddot": 0,
        "tle_line1": "1 40376U 15003A   25355.16556446  .00000364  00000+0  79596-4 0  9998",
        "tle_line2": "2 40376  98.1288 359.7679 0001227  91.4521 268.6822 14.63354538581581"
      },
      "geometry": {
        "type": "Point",
        "coordinates": [
          -176.9814707663784,
          20.225861628616755
        ]
      }
    },
    {
      "type": "Feature",
      "properties": {
        "norad_id": 40536,
        "name": "KOMPSAT-3A",
        "group": "resource",
        "lat": -24.933360937091578,
        "lon": 146.63083380400818,
        "alt_km": 439.8307820024256,
        "timestamp": "2025-12-21T09:37:22.305604+00:00",
        "meta_object_name": "KOMPSAT-3A",
        "meta_object_id": "2015-014A",
        "meta_epoch": "2025-12-21T04:04:21.230688",
        "meta_mean_motion": 15.44229678,
        "meta_eccentricity": 0.0005499,
        "meta_inclination": 97.6794,
        "meta_ra_of_asc_node": 329.9832,
        "meta_arg_of_pericenter": 108.0107,
        "meta_mean_anomaly": 252.174,
        "meta_ephemeris_type": 0,
        "meta_classification_type": "U",
        "meta_norad_cat_id": 40536,
        "meta_element_set_no": 999,
        "meta_rev_at_epoch": 59425,
        "meta_bstar": 0.00030409,
        "meta_mean_motion_dot": 0.00013887,
        "meta_mean_motion_ddot": 0,
        "tle_line1": "1 40536U 15014A   25355.16969017  .00013887  00000+0  30409-3 0  9993",
        "tle_line2": "2 40536  97.6794 329.9832 0005499 108.0107 252.1740 15.44229678594256"
      },
      "geometry": {
        "type": "Point",
        "coordinates": [
          146.63083380400818,
          -24.933360937091578
        ]
      }
    },
    {
      "type": "Feature",
      "properties": {
        "norad_id": 40697,
        "name": "SENTINEL-2A",
        "group": "resource",
        "lat": 80.11636945323013,
        "lon": -52.19890811637778,
        "alt_km": 780.8516065826498,
        "timestamp": "2025-12-21T09:37:22.305614+00:00",
        "meta_object_name": "SENTINEL-2A",
        "meta_object_id": "2015-028A",
        "meta_epoch": "2025-12-21T04:08:45.530016",
        "meta_mean_motion": 14.30808633,
        "meta_eccentricity": 0.0001072,
        "meta_inclination": 98.5743,
        "meta_ra_of_asc_node": 67.587,
        "meta_arg_of_pericenter": 88.8104,
        "meta_mean_anomaly": 271.3202,
        "meta_ephemeris_type": 0,
        "meta_classification_type": "U",
        "meta_norad_cat_id": 40697,
        "meta_element_set_no": 999,
        "meta_rev_at_epoch": 54827,
        "meta_bstar": 7.288e-05,
        "meta_mean_motion_dot": 1.47e-06,
        "meta_mean_motion_ddot": 0,
        "tle_line1": "1 40697U 15028A   25355.17274919  .00000147  00000+0  72880-4 0  9992",
        "tle_line2": "2 40697  98.5743  67.5870 0001072  88.8104 271.3202 14.30808633548275"
      },
      "geometry": {
        "type": "Point",
        "coordinates": [
          -52.19890811637778,
          80.11636945323013
        ]
      }
    },
    {
      "type": "Feature",
      "properties": {
        "norad_id": 40701,
        "name": "GAOFEN-8",
        "group": "resource",
        "lat": -77.45307891512817,
        "lon": -43.42202644006206,
        "alt_km": 464.15546424415334,
        "timestamp": "2025-12-21T09:37:22.305625+00:00",
        "meta_object_name": "GAOFEN-8",
        "meta_object_id": "2015-030A",
        "meta_epoch": "2025-12-21T05:22:32.258208",
        "meta_mean_motion": 15.38801185,
        "meta_eccentricity": 0.0012002,
        "meta_inclination": 97.6904,
        "meta_ra_of_asc_node": 173.7783,
        "meta_arg_of_pericenter": 109.7553,
        "meta_mean_anomaly": 250.4986,
        "meta_ephemeris_type": 0,
        "meta_classification_type": "U",
        "meta_norad_cat_id": 40701,
        "meta_element_set_no": 999,
        "meta_rev_at_epoch": 58401,
        "meta_bstar": 9.4475e-05,
        "meta_mean_motion_dot": 3.541e-05,
        "meta_mean_motion_ddot": 0,
        "tle_line1": "1 40701U 15030A   25355.22398447  .00003541  00000+0  94475-4 0  9995",
        "tle_line2": "2 40701  97.6904 173.7783 0012002 109.7553 250.4986 15.38801185584012"
      },
      "geometry": {
        "type": "Point",
        "coordinates": [
          -43.42202644006206,
          -77.45307891512817
        ]
      }
    },
    {
      "type": "Feature",
      "properties": {
        "norad_id": 40718,
        "name": "CARBONITE 1 (CBNT-1)",
        "group": "resource",
        "lat": -68.92252669600205,
        "lon": -24.31733784458386,
        "alt_km": 629.1424006772231,
        "timestamp": "2025-12-21T09:37:22.305635+00:00",
        "meta_object_name": "CARBONITE 1 (CBNT-1)",
        "meta_object_id": "2015-032D",
        "meta_epoch": "2025-12-21T03:38:23.809344",
        "meta_mean_motion": 14.82780987,
        "meta_eccentricity": 0.0014996,
        "meta_inclination": 97.6395,
        "meta_ra_of_asc_node": 175.8247,
        "meta_arg_of_pericenter": 153.8502,
        "meta_mean_anomaly": 206.3473,
        "meta_ephemeris_type": 0,
        "meta_classification_type": "U",
        "meta_norad_cat_id": 40718,
        "meta_element_set_no": 999,
        "meta_rev_at_epoch": 56295,
        "meta_bstar": 0.00023401,
        "meta_mean_motion_dot": 1.845e-05,
        "meta_mean_motion_ddot": 0,
        "tle_line1": "1 40718U 15032D   25355.15166446  .00001845  00000+0  23401-3 0  9994",
        "tle_line2": "2 40718  97.6395 175.8247 0014996 153.8502 206.3473 14.82780987562954"
      },
      "geometry": {
        "type": "Point",
        "coordinates": [
          -24.31733784458386,
          -68.92252669600205
        ]
      }
    },
    {
      "type": "Feature",
      "properties": {
        "norad_id": 40878,
        "name": "YAOGAN-27",
        "group": "resource",
        "lat": 20.760813039056238,
        "lon": 168.5034614244521,
        "alt_km": 1201.154398345624,
        "timestamp": "2025-12-21T09:37:22.305646+00:00",
        "meta_object_name": "YAOGAN-27",
        "meta_object_id": "2015-040A",
        "meta_epoch": "2025-12-21T05:10:07.480704",
        "meta_mean_motion": 13.16059429,
        "meta_eccentricity": 0.0007576,
        "meta_inclination": 100.1006,
        "meta_ra_of_asc_node": 344.452,
        "meta_arg_of_pericenter": 265.8217,
        "meta_mean_anomaly": 94.2031,
        "meta_ephemeris_type": 0,
        "meta_classification_type": "U",
        "meta_norad_cat_id": 40878,
        "meta_element_set_no": 999,
        "meta_rev_at_epoch": 49425,
        "meta_bstar": -0.0009038,
        "meta_mean_motion_dot": -3.86e-06,
        "meta_mean_motion_ddot": 0,
        "tle_line1": "1 40878U 15040A   25355.21536436 -.00000386  00000+0 -90380-3 0  9998",
        "tle_line2": "2 40878 100.1006 344.4520 0007576 265.8217  94.2031 13.16059429494258"
      },
      "geometry": {
        "type": "Point",
        "coordinates": [
          168.5034614244521,
          20.760813039056238
        ]
      }
    },
    {
      "type": "Feature",
      "properties": {
        "norad_id": 40894,
        "name": "GAOFEN-9 01",
        "group": "resource",
        "lat": 19.00088170460882,
        "lon": -143.3641429401817,
        "alt_km": 639.3574539582933,
        "timestamp": "2025-12-21T09:37:22.305657+00:00",
        "meta_object_name": "GAOFEN-9 01",
        "meta_object_id": "2015-047A",
        "meta_epoch": "2025-12-21T05:39:40.074336",
        "meta_mean_motion": 14.82441013,
        "meta_eccentricity": 0.0027699,
        "meta_inclination": 97.6531,
        "meta_ra_of_asc_node": 33.8241,
        "meta_arg_of_pericenter": 6.9453,
        "meta_mean_anomaly": 353.2139,
        "meta_ephemeris_type": 0,
        "meta_classification_type": "U",
        "meta_norad_cat_id": 40894,
        "meta_element_set_no": 999,
        "meta_rev_at_epoch": 55382,
        "meta_bstar": 0.00010259,
        "meta_mean_motion_dot": 7.76e-06,
        "meta_mean_motion_ddot": 0,
        "tle_line1": "1 40894U 15047A   25355.23588049  .00000776  00000+0  10259-3 0  9990",
        "tle_line2": "2 40894  97.6531  33.8241 0027699   6.9453 353.2139 14.82441013553826"
      },
      "geometry": {
        "type": "Point",
        "coordinates": [
          -143.3641429401817,
          19.00088170460882
        ]
      }
    }
  ]
}